KSLV-II R/B             
1 66663U 25274P   25357.24959984  .00013749  00000+0  11394-2 0  9992
2 66663  97.7435 284.4956 0060000 282.7951  76.6570 14.97536982  3987
SOYUZ-MS 28             
1 66664U 25275A   25360.21233527  .00013862  00000+0  25187-3 0  9995
2 66664  51.6319  75.7553 0003236 303.1667  56.9011 15.49833819  1281
FORMOSAT-8A             
1 66666U 25276A   25360.23385487  .00004348  00000+0  35092-3 0  9998
2 66666  97.6575  71.9758 0004071 183.1463 176.9736 15.00366320  4117
PELICAN-5               
1 66667U 25276B   25360.25293328  .00007778  00000+0  38983-3 0  9995
2 66667  97.4407  71.7936 0002382 197.7497 162.3654 15.17626964  4172
TRANSPORTER-15C         
1 66668U 25276C   25360.13377095  .00466103  00000+0  18619-1 0  9990
2 66668  97.4284  71.5994 0027213 286.2460  73.5783 15.22745397  4154
TRANSPORTER-15D         
1 66669U 25276D   25360.20014095  .00024063  00000+0  12000-2 0  9991
2 66669  97.4283  71.6689 0007469 258.0077 102.0320 15.17501415  4169
HUNITY                  
1 66670U 25276E   25360.26684936  .00022495  00000+0  11253-2 0  9992
2 66670  97.4293  71.7357 0007111 257.4728 102.5710 15.17410748  4172
TRANSPORTER-15F         
1 66671U 25276F   25360.26517119  .00011141  00000+0  56335-3 0  9998
2 66671  97.4417  71.7782 0005027 236.5053 123.5700 15.17201354  4179
TRANSPORTER-15G         
1 66672U 25276G   25360.27113298  .00005143  00000+0  26616-3 0  9994
2 66672  97.4389  71.7613 0005524 235.0447 125.0268 15.16655156  4172
TRANSPORTER-15H         
1 66673U 25276H   25359.99867901  .00010589  00000+0  46623-3 0  9999
2 66673  97.4354  71.5014 0023304 260.7157  99.1444 15.21777094  4132
TRANSPORTER-15J         
1 66674U 25276J   25360.26910632  .00005307  00000+0  27358-3 0  9998
2 66674  97.4367  71.7566 0005093 239.3347 120.7385 15.16777994  4171
TRANSPORTER-15K         
1 66675U 25276K   25359.07916288  .00004644  00000+0  23807-3 0  9997
2 66675  97.4384  70.5991 0005450 251.3095 108.7547 15.17040244  3998
