CCSDS_OMM_VERS = 2.0
CREATION_DATE  = 
ORIGINATOR     = 

OBJECT_NAME    = KSLV-II R/B
OBJECT_ID      = 2025-274P
CENTER_NAME    = EARTH
REF_FRAME      = TEME
TIME_SYSTEM    = UTC
MEAN_ELEMENT_THEORY = SGP/SGP4

EPOCH          = 2025-12-23T05:59:25.426176
MEAN_MOTION    = 14.97536982
ECCENTRICITY   = .00600006
INCLINATION    = 97.7435
RA_OF_ASC_NODE = 284.4956
ARG_OF_PERICENTER = 282.7951
MEAN_ANOMALY   = 76.6570

EPHEMERIS_TYPE = 0
CLASSIFICATION_TYPE = U
NORAD_CAT_ID   = 66663
ELEMENT_SET_NO = 999
REV_AT_EPOCH   = 398
BSTAR          = .11394408E-2
MEAN_MOTION_DOT = .13749E-3
MEAN_MOTION_DDOT = 0

CCSDS_OMM_VERS = 2.0
CREATION_DATE  = 
ORIGINATOR     = 

OBJECT_NAME    = SOYUZ-MS 28
OBJECT_ID      = 2025-275A
CENTER_NAME    = EARTH
REF_FRAME      = TEME
TIME_SYSTEM    = UTC
MEAN_ELEMENT_THEORY = SGP/SGP4

EPOCH          = 2025-12-26T05:05:45.767328
MEAN_MOTION    = 15.49833819
ECCENTRICITY   = .00032367
INCLINATION    = 51.6319
RA_OF_ASC_NODE = 75.7553
ARG_OF_PERICENTER = 303.1667
MEAN_ANOMALY   = 56.9011

EPHEMERIS_TYPE = 0
CLASSIFICATION_TYPE = U
NORAD_CAT_ID   = 66664
ELEMENT_SET_NO = 999
REV_AT_EPOCH   = 128
BSTAR          = .25187037E-3
MEAN_MOTION_DOT = .13862E-3
MEAN_MOTION_DDOT = 0

CCSDS_OMM_VERS = 2.0
CREATION_DATE  = 
ORIGINATOR     = 

OBJECT_NAME    = FORMOSAT-8A
OBJECT_ID      = 2025-276A
CENTER_NAME    = EARTH
REF_FRAME      = TEME
TIME_SYSTEM    = UTC
MEAN_ELEMENT_THEORY = SGP/SGP4

EPOCH          = 2025-12-26T05:36:45.060768
MEAN_MOTION    = 15.00366320
ECCENTRICITY   = .00040712
INCLINATION    = 97.6575
RA_OF_ASC_NODE = 71.9758
ARG_OF_PERICENTER = 183.1463
MEAN_ANOMALY   = 176.9736

EPHEMERIS_TYPE = 0
CLASSIFICATION_TYPE = U
NORAD_CAT_ID   = 66666
ELEMENT_SET_NO = 999
REV_AT_EPOCH   = 411
BSTAR          = .35091515E-3
MEAN_MOTION_DOT = .4348E-4
MEAN_MOTION_DDOT = 0

CCSDS_OMM_VERS = 2.0
CREATION_DATE  = 
ORIGINATOR     = 

OBJECT_NAME    = PELICAN-5
OBJECT_ID      = 2025-276B
CENTER_NAME    = EARTH
REF_FRAME      = TEME
TIME_SYSTEM    = UTC
MEAN_ELEMENT_THEORY = SGP/SGP4

EPOCH          = 2025-12-26T06:04:13.435392
MEAN_MOTION    = 15.17626964
ECCENTRICITY   = .00023829
INCLINATION    = 97.4407
RA_OF_ASC_NODE = 71.7936
ARG_OF_PERICENTER = 197.7497
MEAN_ANOMALY   = 162.3654

EPHEMERIS_TYPE = 0
CLASSIFICATION_TYPE = U
NORAD_CAT_ID   = 66667
ELEMENT_SET_NO = 999
REV_AT_EPOCH   = 417
BSTAR          = .38982634E-3
MEAN_MOTION_DOT = .7778E-4
MEAN_MOTION_DDOT = 0

CCSDS_OMM_VERS = 2.0
CREATION_DATE  = 
ORIGINATOR     = 

OBJECT_NAME    = TRANSPORTER-15C
OBJECT_ID      = 2025-276C
CENTER_NAME    = EARTH
REF_FRAME      = TEME
TIME_SYSTEM    = UTC
MEAN_ELEMENT_THEORY = SGP/SGP4

EPOCH          = 2025-12-26T03:12:37.810080
MEAN_MOTION    = 15.22745397
ECCENTRICITY   = .00272133
INCLINATION    = 97.4284
RA_OF_ASC_NODE = 71.5994
ARG_OF_PERICENTER = 286.2460
MEAN_ANOMALY   = 73.5783

EPHEMERIS_TYPE = 0
CLASSIFICATION_TYPE = U
NORAD_CAT_ID   = 66668
ELEMENT_SET_NO = 999
REV_AT_EPOCH   = 415
BSTAR          = .18619284E-1
MEAN_MOTION_DOT = .466103E-2
MEAN_MOTION_DDOT = 0

CCSDS_OMM_VERS = 2.0
CREATION_DATE  = 
ORIGINATOR     = 

OBJECT_NAME    = TRANSPORTER-15D
OBJECT_ID      = 2025-276D
CENTER_NAME    = EARTH
REF_FRAME      = TEME
TIME_SYSTEM    = UTC
MEAN_ELEMENT_THEORY = SGP/SGP4

EPOCH          = 2025-12-26T04:48:12.178080
MEAN_MOTION    = 15.17501415
ECCENTRICITY   = .00074697
INCLINATION    = 97.4283
RA_OF_ASC_NODE = 71.6689
ARG_OF_PERICENTER = 258.0077
MEAN_ANOMALY   = 102.0320

EPHEMERIS_TYPE = 0
CLASSIFICATION_TYPE = U
NORAD_CAT_ID   = 66669
ELEMENT_SET_NO = 999
REV_AT_EPOCH   = 416
BSTAR          = .12000291E-2
MEAN_MOTION_DOT = .24063E-3
MEAN_MOTION_DDOT = 0

CCSDS_OMM_VERS = 2.0
CREATION_DATE  = 
ORIGINATOR     = 

OBJECT_NAME    = HUNITY
OBJECT_ID      = 2025-276E
CENTER_NAME    = EARTH
REF_FRAME      = TEME
TIME_SYSTEM    = UTC
MEAN_ELEMENT_THEORY = SGP/SGP4

EPOCH          = 2025-12-26T06:24:15.784704
MEAN_MOTION    = 15.17410748
ECCENTRICITY   = .00071113
INCLINATION    = 97.4293
RA_OF_ASC_NODE = 71.7357
ARG_OF_PERICENTER = 257.4728
MEAN_ANOMALY   = 102.5710

EPHEMERIS_TYPE = 0
CLASSIFICATION_TYPE = U
NORAD_CAT_ID   = 66670
ELEMENT_SET_NO = 999
REV_AT_EPOCH   = 417
BSTAR          = .11252994E-2
MEAN_MOTION_DOT = .22495E-3
MEAN_MOTION_DDOT = 0

CCSDS_OMM_VERS = 2.0
CREATION_DATE  = 
ORIGINATOR     = 

OBJECT_NAME    = TRANSPORTER-15F
OBJECT_ID      = 2025-276F
CENTER_NAME    = EARTH
REF_FRAME      = TEME
TIME_SYSTEM    = UTC
MEAN_ELEMENT_THEORY = SGP/SGP4

EPOCH          = 2025-12-26T06:21:50.790816
MEAN_MOTION    = 15.17201354
ECCENTRICITY   = .00050275
INCLINATION    = 97.4417
RA_OF_ASC_NODE = 71.7782
ARG_OF_PERICENTER = 236.5053
MEAN_ANOMALY   = 123.5700

EPHEMERIS_TYPE = 0
CLASSIFICATION_TYPE = U
NORAD_CAT_ID   = 66671
ELEMENT_SET_NO = 999
REV_AT_EPOCH   = 417
BSTAR          = .56335066E-3
MEAN_MOTION_DOT = .11141E-3
MEAN_MOTION_DDOT = 0

CCSDS_OMM_VERS = 2.0
CREATION_DATE  = 
ORIGINATOR     = 

OBJECT_NAME    = TRANSPORTER-15G
OBJECT_ID      = 2025-276G
CENTER_NAME    = EARTH
REF_FRAME      = TEME
TIME_SYSTEM    = UTC
MEAN_ELEMENT_THEORY = SGP/SGP4

EPOCH          = 2025-12-26T06:30:25.889472
MEAN_MOTION    = 15.16655156
ECCENTRICITY   = .00055242
INCLINATION    = 97.4389
RA_OF_ASC_NODE = 71.7613
ARG_OF_PERICENTER = 235.0447
MEAN_ANOMALY   = 125.0268

EPHEMERIS_TYPE = 0
CLASSIFICATION_TYPE = U
NORAD_CAT_ID   = 66672
ELEMENT_SET_NO = 999
REV_AT_EPOCH   = 417
BSTAR          = .26615629E-3
MEAN_MOTION_DOT = .5143E-4
MEAN_MOTION_DDOT = 0

CCSDS_OMM_VERS = 2.0
CREATION_DATE  = 
ORIGINATOR     = 

OBJECT_NAME    = TRANSPORTER-15H
OBJECT_ID      = 2025-276H
CENTER_NAME    = EARTH
REF_FRAME      = TEME
TIME_SYSTEM    = UTC
MEAN_ELEMENT_THEORY = SGP/SGP4

EPOCH          = 2025-12-25T23:58:05.866464
MEAN_MOTION    = 15.21777094
ECCENTRICITY   = .00233049
INCLINATION    = 97.4354
RA_OF_ASC_NODE = 71.5014
ARG_OF_PERICENTER = 260.7157
MEAN_ANOMALY   = 99.1444

EPHEMERIS_TYPE = 0
CLASSIFICATION_TYPE = U
NORAD_CAT_ID   = 66673
ELEMENT_SET_NO = 999
REV_AT_EPOCH   = 413
BSTAR          = .46623281E-3
MEAN_MOTION_DOT = .10589E-3
MEAN_MOTION_DDOT = 0

CCSDS_OMM_VERS = 2.0
CREATION_DATE  = 
ORIGINATOR     = 

OBJECT_NAME    = TRANSPORTER-15J
OBJECT_ID      = 2025-276J
CENTER_NAME    = EARTH
REF_FRAME      = TEME
TIME_SYSTEM    = UTC
MEAN_ELEMENT_THEORY = SGP/SGP4

EPOCH          = 2025-12-26T06:27:30.786048
MEAN_MOTION    = 15.16777994
ECCENTRICITY   = .00050939
INCLINATION    = 97.4367
RA_OF_ASC_NODE = 71.7566
ARG_OF_PERICENTER = 239.3347
MEAN_ANOMALY   = 120.7385

EPHEMERIS_TYPE = 0
CLASSIFICATION_TYPE = U
NORAD_CAT_ID   = 66674
ELEMENT_SET_NO = 999
REV_AT_EPOCH   = 417
BSTAR          = .27357917E-3
MEAN_MOTION_DOT = .5307E-4
MEAN_MOTION_DDOT = 0

CCSDS_OMM_VERS = 2.0
CREATION_DATE  = 
ORIGINATOR     = 

OBJECT_NAME    = TRANSPORTER-15K
OBJECT_ID      = 2025-276K
CENTER_NAME    = EARTH
REF_FRAME      = TEME
TIME_SYSTEM    = UTC
MEAN_ELEMENT_THEORY = SGP/SGP4

EPOCH          = 2025-12-25T01:53:59.672832
MEAN_MOTION    = 15.17040244
ECCENTRICITY   = .00054509
INCLINATION    = 97.4384
RA_OF_ASC_NODE = 70.5991
ARG_OF_PERICENTER = 251.3095
MEAN_ANOMALY   = 108.7547

EPHEMERIS_TYPE = 0
CLASSIFICATION_TYPE = U
NORAD_CAT_ID   = 66675
ELEMENT_SET_NO = 999
REV_AT_EPOCH   = 399
BSTAR          = .23807205E-3
MEAN_MOTION_DOT = .4644E-4
MEAN_MOTION_DDOT = 0

